     2.100          NAVIGATION                              RINEX VERSION / TYPE
fic2rin                                 03/22/2015 00:29:47 PGM / RUN BY / DATE
                                                            END OF HEADER
30 15  3 21 20  0  0.0 -.783116556704D-04  .284217094304D-11  .000000000000D+00
     .570000000000D+02 -.960625000000D+02  .506842540598D-08  .287203326170D+01
    -.493042171001D-05  .111795903649D-02  .462494790554D-05  .515375777245D+04
     .590400000000D+06  .223517417908D-07  .253379682948D+01  .223517417908D-07
     .956547370620D+00  .290625000000D+03  .286616618339D+01 -.852856953487D-08
    -.453590322429D-09  .100000000000D+01  .183600000000D+04  .000000000000D+00
     .240000000000D+01  .000000000000D+00  .325962901115D-08  .570000000000D+02
     .583206000000D+06  .400000000000D+01
31 15  3 21 20  0  0.0  .320599880069D-03 -.909494701773D-12  .000000000000D+00
     .110000000000D+03 -.985000000000D+02  .464162191361D-08  .257358253389D+01
    -.484287738800D-05  .821772427298D-02  .542216002941D-05  .515374681091D+04
     .590400000000D+06  .558793544769D-08  .249098388528D+01  .258907675743D-06
     .975693461663D+00  .283781250000D+03 -.529355593282D+00 -.826498712703D-08
    -.553951645738D-09  .100000000000D+01  .183600000000D+04  .000000000000D+00
     .240000000000D+01  .000000000000D+00 -.135041773319D-07  .110000000000D+03
     .583206000000D+06  .400000000000D+01
32 15  3 21 20  0  0.0 -.195642933249D-03  .943600753089D-11  .000000000000D+00
     .120000000000D+03  .430312500000D+02  .436303888094D-08 -.305391327586D+01
     .225938856602D-05  .112735229777D-01  .152830034494D-04  .515381328011D+04
     .590400000000D+06 -.167638063431D-06  .446123789338D+00 -.298023223877D-07
     .947570344988D+00  .740625000000D+02  .248977158555D-01 -.780603943859D-08
     .846463830045D-10  .100000000000D+01  .183600000000D+04  .000000000000D+00
     .240000000000D+01  .000000000000D+00 -.372529029846D-08  .120000000000D+03
     .583206000000D+06  .400000000000D+01
31 15  3 21 19 59 44.0  .320596154779D-03 -.909494701773D-12  .000000000000D+00
     .190000000000D+02 -.985000000000D+02  .464162191361D-08  .257124886942D+01
    -.484287738800D-05  .821772543713D-02  .542216002941D-05  .515374681282D+04
     .590384000000D+06  .558793544769D-08  .249098403596D+01  .258907675743D-06
     .975693470441D+00  .283781250000D+03 -.529355616689D+00 -.826498712703D-08
    -.553951645738D-09  .100000000000D+01  .183600000000D+04  .000000000000D+00
     .240000000000D+01  .000000000000D+00 -.135041773319D-07  .190000000000D+02
     .585216000000D+06  .400000000000D+01
23 15  3 21 19 59 44.0 -.966321676970D-04 -.261479726760D-11  .000000000000D+00
     .160000000000D+02  .104343750000D+03  .519093050881D-08 -.204639664562D+01
     .507198274136D-05  .988673523534D-02  .513158738613D-05  .515364484024D+04
     .590384000000D+06  .121071934700D-06  .141636493630D+01 -.167638063431D-06
     .948742437879D+00  .274625000000D+03 -.270680468437D+01 -.857142846297D-08
     .672528013491D-09  .100000000000D+01  .183600000000D+04  .000000000000D+00
     .240000000000D+01  .000000000000D+00 -.200234353542D-07  .160000000000D+02
     .588936000000D+06  .400000000000D+01
23 15  3 21 21 59 44.0 -.966503284872D-04 -.261479726760D-11  .000000000000D+00
     .180000000000D+02  .107812500000D+03  .515342894672D-08 -.996291613008D+00
     .564567744732D-05  .988694117405D-02  .450573861599D-05  .515364301491D+04
     .597584000000D+06  .262632966042D-06  .141630352593D+01 -.465661287308D-07
     .948746955370D+00  .281625000000D+03 -.270670594178D+01 -.866143221199D-08
     .603596570791D-09  .100000000000D+01  .183600000000D+04  .000000000000D+00
     .240000000000D+01  .000000000000D+00 -.200234353542D-07  .180000000000D+02
     .590406000000D+06  .400000000000D+01
31 15  3 21 21 59 44.0  .320589169860D-03 -.909494701773D-12  .000000000000D+00
     .200000000000D+02 -.976875000000D+02  .460126308965D-08 -.266179402467D+01
    -.492483377457D-05  .821778923273D-02  .539049506187D-05  .515374670029D+04
     .597584000000D+06 -.147148966789D-06  .249092447325D+01  .987201929092D-07
     .975690411479D+00  .284125000000D+03 -.529360679849D+00 -.813998192006D-08
    -.451804533758D-09  .100000000000D+01  .183600000000D+04  .000000000000D+00
     .240000000000D+01  .000000000000D+00 -.135041773319D-07  .200000000000D+02
     .590406000000D+06  .400000000000D+01
 1 15  3 21 22  0  0.0 -.770017504692D-05  .454747350886D-12  .000000000000D+00
     .690000000000D+02 -.667812500000D+02  .473484008224D-08 -.191413365446D+01
    -.341795384884D-05  .397835788317D-02  .618398189545D-05  .515366221046D+04
     .597600000000D+06 -.596046447754D-07 -.676757283509D+00 -.149011611938D-07
     .961969752553D+00  .261593750000D+03  .385308789681D+00 -.825105797540D-08
    -.507163982558D-09  .100000000000D+01  .183600000000D+04  .000000000000D+00
     .240000000000D+01  .000000000000D+00  .558793544769D-08  .690000000000D+02
     .590406000000D+06  .400000000000D+01
 2 15  3 21 22  0  0.0  .554971396923D-03  .227373675443D-11  .000000000000D+00
     .360000000000D+02 -.616250000000D+02  .535593738200D-08 -.139549911045D+01
    -.314041972160D-05  .145415690495D-01  .445544719696D-05  .515377966499D+04
     .597600000000D+06  .424683094025D-06 -.712858789659D+00 -.260770320892D-07
     .940553199485D+00  .281125000000D+03 -.229693748366D+01 -.856428530829D-08
    -.445018536808D-09  .100000000000D+01  .183600000000D+04  .000000000000D+00
     .240000000000D+01  .000000000000D+00 -.204890966415D-07  .360000000000D+02
     .590406000000D+06  .400000000000D+01
 3 15  3 21 22  0  0.0  .265194103122D-03  .163709046319D-10  .000000000000D+00
     .980000000000D+02  .297500000000D+02  .406088343781D-08  .257444159743D+00
     .155903398991D-05  .942190410569D-03  .144671648741D-04  .515373465157D+04
     .597600000000D+06  .521540641785D-07  .363410145126D+00  .391155481339D-07
     .959891693513D+00  .995937500000D+02 -.286012074319D+01 -.781353975101D-08
    -.403588239642D-10  .100000000000D+01  .183600000000D+04  .000000000000D+00
     .340000000000D+01  .000000000000D+00  .139698386192D-08  .980000000000D+02
     .590406000000D+06  .400000000000D+01
 4 15  3 21 22  0  0.0 -.947434455156D-05 -.682121026330D-12  .000000000000D+00
     .960000000000D+02 -.725000000000D+02  .522486049355D-08 -.214310534099D+01
    -.370107591152D-05  .110963877523D-01  .557489693165D-05  .515371141434D+04
     .597600000000D+06  .111758708954D-06 -.697501897822D+00 -.596046447754D-07
     .939611780979D+00  .258593750000D+03  .105331653717D+01 -.841142179805D-08
    -.470733893670D-09  .100000000000D+01  .183600000000D+04  .000000000000D+00
     .240000000000D+01  .000000000000D+00 -.651925802231D-08  .960000000000D+02
     .590406000000D+06  .400000000000D+01
 5 15  3 21 22  0  0.0 -.263899564743D-03  .488853402203D-11  .000000000000D+00
     .490000000000D+02  .712500000000D+01  .442232706482D-08  .985743739589D+00
     .497326254845D-06  .401710602455D-02  .137127935886D-04  .515380150986D+04
     .597600000000D+06 -.111758708954D-06  .357259026644D+00  .726431608200D-07
     .947145902714D+00  .108218750000D+03  .408208602704D+00 -.794783105907D-08
    -.985755346381D-10  .100000000000D+01  .183600000000D+04  .000000000000D+00
     .240000000000D+01  .000000000000D+00 -.107102096081D-07  .490000000000D+02
     .590406000000D+06  .400000000000D+01
 6 15  3 21 22  0  0.0  .114812981337D-03  .104591890704D-10  .000000000000D+00
     .270000000000D+02 -.625937500000D+02  .490413284825D-08  .227230528744D+00
    -.326335430145D-05  .258261919953D-03  .555068254471D-05  .515370926285D+04
     .597600000000D+06  .633299350739D-07 -.685279822918D+00  .558793544769D-08
     .961855166568D+00  .274781250000D+03  .301136106609D+01 -.842963684250D-08
    -.497520723735D-09  .100000000000D+01  .183600000000D+04  .000000000000D+00
     .240000000000D+01  .000000000000D+00  .465661287308D-08  .270000000000D+02
     .590406000000D+06  .400000000000D+01
 7 15  3 21 22  0  0.0  .449467916042D-03  .284217094304D-11  .000000000000D+00
     .560000000000D+02 -.978437500000D+02  .478412784956D-08 -.252112563434D+01
    -.512041151524D-05  .810167938471D-02  .469759106636D-05  .515372449875D+04
     .597600000000D+06 -.111758708954D-07  .248346619504D+01 -.139698386192D-06
     .970788885437D+00  .296781250000D+03 -.275555665318D+01 -.835749098019D-08
    -.416088760338D-09  .100000000000D+01  .183600000000D+04  .000000000000D+00
     .240000000000D+01  .000000000000D+00 -.111758708954D-07  .560000000000D+02
     .590406000000D+06  .400000000000D+01
 8 15  3 21 22  0  0.0  .187517143786D-04  .454747350886D-12  .000000000000D+00
     .770000000000D+02 -.936250000000D+02  .420874673977D-08 -.960139386025D+00
    -.480748713017D-05  .144806740573D-01  .638142228127D-05  .515357550049D+04
     .597600000000D+06  .245869159698D-06  .258945976814D+01  .260770320892D-07
     .994472761108D+00  .271125000000D+03 -.268281963336D+01 -.804247785863D-08
    -.433589489314D-09  .100000000000D+01  .183600000000D+04  .000000000000D+00
     .340000000000D+01  .630000000000D+02 -.512227416039D-08  .770000000000D+02
     .590406000000D+06  .400000000000D+01
 9 15  3 21 22  0  0.0 -.118723139167D-03 -.954969436862D-11  .000000000000D+00
     .520000000000D+02  .109906250000D+03  .492413368136D-08 -.216022519394D+00
     .552088022232D-05  .428454717621D-03  .508502125740D-05  .515363028908D+04
     .597600000000D+06  .409781932831D-07  .140707897602D+01 -.130385160446D-07
     .957705382925D+00  .276156250000D+03  .232575391817D+01 -.853035532354D-08
     .593238996500D-09  .100000000000D+01  .183600000000D+04  .000000000000D+00
     .240000000000D+01  .000000000000D+00  .465661287308D-09  .520000000000D+02
     .590406000000D+06  .400000000000D+01
